{
    "links": {
        "self": "http://www.neowsapp.com/rest/v1/neo/3483542?api_key=iIulBulltgU6a56xZRHN4H3l9WmuAYTsLGpBGhQ2"
    },
    "id": "3483542",
    "neo_reference_id": "3483542",
    "name": "(2009 XP7)",
    "designation": "2009 XP7",
    "nasa_jpl_url": "http://ssd.jpl.nasa.gov/sbdb.cgi?sstr=3483542",
    "absolute_magnitude_h": 24.0,
    "estimated_diameter": {
        "kilometers": {
            "estimated_diameter_min": 0.0421264611,
            "estimated_diameter_max": 0.0941976306
        },
        "meters": {
            "estimated_diameter_min": 42.1264610556,
            "estimated_diameter_max": 94.1976305719
        },
        "miles": {
            "estimated_diameter_min": 0.0261761612,
            "estimated_diameter_max": 0.0585316759
        },
        "feet": {
            "estimated_diameter_min": 138.2101784897,
            "estimated_diameter_max": 309.0473542854
        }
    },
    "is_potentially_hazardous_asteroid": false,
    "close_approach_data": [
        {
            "close_approach_date": "2009-12-08",
            "close_approach_date_full": "2009-Dec-08 14:56",
            "epoch_date_close_approach": 1260284160000,
            "relative_velocity": {
                "kilometers_per_second": "8.8492790507",
                "kilometers_per_hour": "31857.4045826949",
                "miles_per_hour": "19794.9523086195"
            },
            "miss_distance": {
                "astronomical": "0.0722613014",
                "lunar": "28.1096462446",
                "kilometers": "10810136.772868018",
                "miles": "6717107.5142459284"
            },
            "orbiting_body": "Earth"
        }
    ],
    "orbital_data": {
        "orbit_id": "11",
        "orbit_determination_date": "2017-04-06 08:58:45",
        "first_observation_date": "2009-12-15",
        "last_observation_date": "2010-01-05",
        "data_arc_in_days": 21,
        "observations_used": 37,
        "orbit_uncertainty": "7",
        "minimum_orbit_intersection": ".0706628",
        "jupiter_tisserand_invariant": "4.134",
        "epoch_osculation": "2459000.5",
        "eccentricity": ".3874273725211592",
        "semi_major_axis": "1.672115553555178",
        "inclination": "12.13807465929066",
        "ascending_node_longitude": "264.4554616035499",
        "orbital_period": "789.7649518757714",
        "perihelion_distance": "1.024292218089532",
        "perihelion_argument": "148.2633954404137",
        "aphelion_distance": "2.319938889020824",
        "perihelion_time": "2459102.422770253860",
        "mean_anomaly": "313.5403575402505",
        "mean_motion": ".455831825842567",
        "equinox": "J2000",
        "orbit_class": {
            "orbit_class_type": "AMO",
            "orbit_class_description": "Near-Earth asteroid orbits similar to that of 1221 Amor",
            "orbit_class_range": "1.017 AU < q (perihelion) < 1.3 AU"
        }
    },
    "is_sentry_object": false
}